# From  26, 114
D/1766 G1 (Helfenzrieder),e,8.716,93.542,175.686,2.72395,0.219233,0.8521417,291.168,12/20.0/2023,2000,g  9.0,4.0
# From  89, 256
D/1884 O1 (Barnard),e,9.3065,332.8953,339.8225,3.084231,0.1819633,0.57118004,223.6549,12/20.0/2023,2000,g  9.0,4.0
# From  89, 256
D/1886 K1 (Brooks),e,10.9262,39.1631,208.4331,3.552010,0.1472288,0.46836813,279.5732,12/20.0/2023,2000,g  9.0,4.0
# From CCO 8
D/1894 F1 (Denning),e,1.4230,297.3377,198.4056,3.825465,0.1317279,0.69391148,96.2958,12/20.0/2023,2000,g  9.0,4.0
# From  13, 428
D/1895 Q1 (Swift),e,13.5226,135.7856,199.2597,3.723159,0.1371945,0.62678904,274.1829,12/20.0/2023,2000,g  9.0,4.0
# From  114, 147
D/1918 W1 (Schorr),e,6.8224,75.9281,326.4443,4.154952,0.1163738,0.31788787,329.0375,12/20.0/2023,2000,g  9.0,4.0
# From MPC 4601
D/1952 B1 (Harrington-Wilson),e,11.1711,116.4069,5.0007,3.079271,0.1824031,0.62511802,93.7369,12/20.0/2023,2000,g  9.0,4.0
# From MPC 11152
D/1977 C1 (Skiff-Kosai),e,3.1989,80.2885,25.2204,3.827086,0.1316442,0.26884664,115.2195,12/20.0/2023,2000,g  9.0,4.0
# From NK 779
D/1978 R1 (Haneda-Campos),e,4.9452,66.4917,307.1746,3.455926,0.1534113,0.62934454,37.7949,12/20.0/2023,2000,g  9.0,4.0
# From MPC 23764
D/1993 F2-D (Shoemaker-Levy),e,40.9075,160.7132,223.7495,4.219263,0.1137232,0.33204549,4.1746,12/20.0/2023,2000,g  9.0,4.0
# From MPEC 2022-S20
C/1995 O1 (Hale-Bopp),e,89.4325,282.3732,130.2066,177.2470,0.0004177,0.99498468,0.0000,03/30.7636/1997,2000,g -2.0,4.0
# From NK 1615
P/1996 R2 (Lagerkvist),e,2.5999,40.0586,333.4189,3.773945,0.1344345,0.31457168,237.9059,12/20.0/2023,2000,g 11.5,4.0
# From MPC 75703
P/1998 VS24 (LINEAR),e,5.0282,159.0719,244.7049,4.523113,0.1024585,0.24361876,220.9889,12/20.0/2023,2000,g 13.0,2.0
# From NK 731
P/1999 RO28 (LONEOS),e,7.5671,137.8772,231.3155,3.426053,0.1554221,0.67244319,254.2935,12/20.0/2023,2000,g 20.0,2.0
# From MPC 75704
P/1999 XN120 (Catalina),e,5.0298,285.2626,161.6835,4.179060,0.1153682,0.21076604,275.3807,12/20.0/2023,2000,g 13.5,2.0
# From NK 744
P/2000 R2 (LINEAR),e,11.6829,160.2932,176.5920,3.468298,0.1525912,0.53098238,251.1826,12/20.0/2023,2000,g 18.0,4.0
# From MPC 43019
P/2001 H5 (NEAT),e,8.3684,328.6381,224.6779,6.095591,0.0654908,0.59833699,196.0851,12/20.0/2023,2000,g 12.0,4.0
# From MPEC 2023-XP8
P/2001 Q6 (NEAT),e,56.9095,22.1853,42.9203,7.972913,0.0437803,0.82368188,357.0121,12/20.0/2023,2000,g 13.5,4.0
# From MPEC 2023-UR6
P/2002 EJ57 (LINEAR),e,4.9821,330.2685,167.2549,6.458656,0.0600469,0.59301848,120.7577,12/20.0/2023,2000,g 12.5,4.0
# From MPC 75007
C/2002 VQ94 (LINEAR),e,70.7116,35.1633,99.8640,184.9283,0.0003919,0.96334124,2.5584,12/20.0/2023,2000,g  9.5,2.0
# From MPC 50354
P/2003 F2 (NEAT),e,11.6323,358.9676,192.2808,6.501318,0.0594569,0.54145998,89.1042,12/20.0/2023,2000,g 16.5,2.0
# From MPC 50139
P/2003 QX29 (NEAT),e,11.3974,264.5367,37.6714,8.007279,0.0434987,0.47192786,334.0711,12/20.0/2023,2000,g  8.5,4.0
# From MPC105235
P/2003 T12 (SOHO),e,11.0250,174.5822,219.7763,2.584516,0.2372112,0.77027500,313.3276,12/20.0/2023,2000,g 17.0,4.0
# From MPC 54558
P/2004 DO29 (Spacewatch-LINEAR),e,14.5281,147.3234,40.4716,7.306527,0.0499043,0.44193733,351.7121,12/20.0/2023,2000,g 13.5,2.0
# From MPEC 2022-YN2
P/2004 FY140 (LINEAR),e,2.1619,327.2727,254.1158,4.970202,0.0889494,0.19189696,256.7990,12/20.0/2023,2000,g 12.5,2.0
# From MPC 53304
P/2004 R3 (LINEAR-NEAT),e,12.7903,305.1323,37.5841,4.754962,0.0950569,0.25460852,78.1914,12/20.0/2023,2000,g 14.5,4.0
# From MPC 75705
P/2004 V5 (LINEAR-Hill),e,19.3484,47.7386,87.4373,8.008760,0.0434867,0.44645356,302.2143,12/20.0/2023,2000,g  8.0,4.0
# From MPC 75705
P/2004 V5-B (LINEAR-Hill),e,19.3485,47.7390,87.4403,8.009171,0.0434833,0.44647837,302.1769,12/20.0/2023,2000,g  8.0,4.0
# From MPC 54164
P/2005 E1 (Tubbiolo),e,4.2622,335.5268,193.8699,7.059731,0.0525438,0.37635770,4.3723,12/20.0/2023,2000,g 10.0,4.0
# From MPC 79019
P/2005 J1 (McNaught),e,31.7385,268.7982,338.9169,3.573394,0.1459092,0.56896581,276.8524,12/20.0/2023,2000,g 16.5,4.0
# From MPC 74246
P/2005 L1 (McNaught),e,7.6566,137.0209,152.0233,4.012628,0.1226198,0.22082166,93.9492,12/20.0/2023,2000,g  9.5,4.0
# From MPC 75706
P/2005 S2 (Skiff),e,3.1368,161.3609,229.6436,7.995113,0.0435981,0.19889676,278.9588,12/20.0/2023,2000,g  7.5,4.0
# From MPC 75706
P/2005 SB216 (LONEOS),e,24.1106,1.1275,83.2193,7.151886,0.0515316,0.46541929,321.0046,12/20.0/2023,2000,g 12.0,2.0
# From MPC 73461
P/2005 T3 (Read),e,6.2268,27.6639,6.7787,7.586886,0.0471638,0.17550438,314.2724,12/20.0/2023,2000,g  9.0,4.0
# From MPC 73461
P/2005 T4 (SWAN),e,60.2818,25.9406,41.8786,9.355505,0.0344432,0.93001668,228.6444,12/20.0/2023,2000,g 15.0,4.0
# From MPC 75706
P/2005 T5 (Broughton),e,21.3836,57.0688,304.7185,7.270668,0.0502739,0.55241615,332.7196,12/20.0/2023,2000,g 11.0,4.0
# From MPC 75707
P/2006 HR30 (Siding Spring),e,31.9100,309.8334,117.4083,7.804166,0.0452079,0.84356040,280.6673,12/20.0/2023,2000,g 11.0,4.0
# From MPC 75707
P/2007 C2 (Catalina),e,8.6123,275.2616,180.1575,7.007173,0.0531361,0.47294255,316.2682,12/20.0/2023,2000,g 10.0,4.0
# From MPC 84315
C/2007 D1 (LINEAR),e,41.5042,171.1748,339.6995,1145,0.0000254,0.99235366,0.0000,06/09.1394/2007,2000,g  3.5,4.0
# From MPC 82314
P/2007 K2 (Gibbs),e,7.6236,188.5842,347.2983,7.294344,0.0500293,0.68417721,304.7881,12/20.0/2023,2000,g 14.0,4.0
# From MPC 60925
P/2007 Q2 (Gilmore),e,10.2003,172.1937,162.8725,5.660523,0.0731845,0.66953411,81.8536,12/20.0/2023,2000,g 16.0,4.0
# From MPC 73462
P/2007 S1 (Zhao),e,5.9649,141.3319,245.2093,3.817075,0.1321625,0.33847215,58.0564,12/20.0/2023,2000,g 13.0,4.0
# From MPC 61994
P/2007 T2 (Kowalski),e,9.7507,3.3890,359.6714,3.044420,0.1855441,0.78567033,6.0085,12/20.0/2023,2000,g 18.5,4.0
# From MPC 64114
P/2008 O3 (Boattini),e,32.3296,47.6081,341.1739,8.210952,0.0418903,0.69662797,237.5609,12/20.0/2023,2000,g 13.0,4.0
# From MPC 75710
P/2008 Y3 (McNaught),e,38.7783,262.8327,238.0504,8.044640,0.0431961,0.44686290,236.8645,12/20.0/2023,2000,g  8.5,4.0
# From MPC 75710
P/2009 B1 (Boattini),e,22.2513,297.1045,128.9296,6.733585,0.0564072,0.63602543,307.9189,12/20.0/2023,2000,g 13.0,4.0
# From MPC 66466
C/2009 G1 (STEREO),e,8.5233,120.7046,175.5232,462.6298,0.0000990,0.99750350,0.0000,04/14.5499/2009,2000,g  9.0,4.0
# From MPC 75710
P/2009 O3 (Hill),e,16.2759,183.7104,154.4787,7.767495,0.0455284,0.68714694,242.0093,12/20.0/2023,2000,g 12.5,4.0
# From MPC 68902
P/2009 Q5 (McNaught),e,40.9814,160.2765,209.1518,7.426350,0.0487013,0.60981579,253.4024,12/20.0/2023,2000,g 10.0,4.0
# From MPC112389
P/2009 T2 (La Sagra),e,27.6162,216.3593,215.9098,7.713716,0.0460054,0.76718995,234.4345,12/20.0/2023,2000,g 14.0,4.0
# From MPC105235
P/2009 WX51 (Catalina),e,9.5928,31.5522,118.2572,3.082669,0.1821016,0.73935590,205.6983,12/20.0/2023,2000,g 19.0,2.0
# From MPC 74247
P/2009 Y2 (Kowalski),e,29.9707,262.0809,172.1553,6.545944,0.0588499,0.63731525,296.5782,12/20.0/2023,2000,g 13.0,4.0
# From MPC 75711
P/2010 A3 (Hill),e,14.8187,63.6481,42.2384,6.093352,0.0655269,0.73404954,330.6754,12/20.0/2023,2000,g 14.0,4.0
# From MPC 75008
P/2010 C1 (Scotti),e,9.1185,141.6512,3.1812,7.115327,0.0519292,0.26218378,269.4343,12/20.0/2023,2000,g  9.5,4.0
# From MPC 75008
P/2010 D2 (WISE),e,57.1162,319.8730,119.9359,6.721725,0.0565566,0.45172262,286.6387,12/20.0/2023,2000,g 16.0,4.0
# From MPC 75009
P/2010 E2 (Jarnac),e,15.3953,177.7967,8.2674,8.639203,0.0388145,0.71975844,195.0331,12/20.0/2023,2000,g 14.0,4.0
# From MPC 72851
P/2010 H2 (Vales),e,14.2796,64.1875,128.0436,3.831826,0.1314000,0.19717069,301.4374,12/20.0/2023,2000,g  6.0,4.0
# From MPC 70361
P/2010 H3 (SOHO),e,23.1389,77.1712,26.0712,3.036007,0.1863159,0.98549025,0.0000,05/25.1245/2026,2000,g 20.0,2.0
# From MPC 73463
P/2010 H4 (Scotti),e,2.3179,44.6179,179.1670,6.608329,0.0580185,0.26607127,287.6741,12/20.0/2023,2000,g 10.5,4.0
# From MPC 74637
P/2010 H5 (Scotti),e,14.0575,24.5912,174.5926,7.175483,0.0512776,0.15304376,258.3993,12/20.0/2023,2000,g 13.0,2.0
# From MPC 98558
P/2010 J3 (McMillan),e,13.2428,106.5121,157.5111,8.984993,0.0365955,0.72458303,178.2907,12/20.0/2023,2000,g 11.0,4.0
# From MPC 84315
P/2010 JC81 (WISE),e,38.8194,30.8788,12.4522,8.103531,0.0427260,0.77829680,197.2355,12/20.0/2023,2000,g  9.0,4.0
# From MPC 74248
P/2010 T2 (PANSTARRS),e,7.8917,57.9590,351.9417,5.637796,0.0736275,0.32972086,354.2538,12/20.0/2023,2000,g 11.5,4.0
# From MPEC 2023-O88
P/2010 TO20 (LINEAR-Grauer),e,2.4788,43.2716,267.8301,5.831636,0.0699872,0.05541467,26.8348,12/20.0/2023,2000,g  9.0,4.0
# From MPC 82316
P/2010 U1 (Boattini),e,8.2252,280.8045,86.3767,6.494262,0.0595538,0.24906688,300.8568,12/20.0/2023,2000,g  9.5,4.0
# From MPEC 2023-J95
C/2010 U3 (Boattini),e,55.5669,42.9873,88.0414,4139,0.0000037,0.99796130,0.0000,02/26.0859/2019,2000,g  1.0,4.0
# From MPC 79021
P/2010 UH55 (Spacewatch),e,8.0372,232.8961,225.1700,6.653000,0.0574351,0.56434835,266.5804,12/20.0/2023,2000,g 11.0,4.0
# From MPC 75009
P/2010 WK (LINEAR),e,11.4024,11.3434,40.9991,5.762349,0.0712533,0.69071426,344.7294,12/20.0/2023,2000,g 14.5,2.0
# From MPC 84021
P/2011 C2 (Gibbs),e,10.8883,11.9535,160.3741,7.412754,0.0488354,0.26975931,214.6997,12/20.0/2023,2000,g  9.0,4.0
# From MPC 79866
P/2011 FR143 (Lemmon),e,15.9726,190.8731,349.8341,6.869772,0.0547382,0.45149255,257.3983,12/20.0/2023,2000,g 14.0,2.0
# From MPC 82317
P/2011 JB15 (Spacewatch-Boattini),e,19.1340,153.5619,110.9517,7.373635,0.0492245,0.31489471,214.8663,12/20.0/2023,2000,g  9.0,4.0
# From MPC 87913
P/2011 N1 (ASH),e,35.7801,77.6275,330.4108,6.239864,0.0632327,0.54553171,266.9607,12/20.0/2023,2000,g 11.5,4.0
# From MPC 75714
P/2011 NO1 (Elenin),e,15.2452,295.8147,263.7176,5.537151,0.0756440,0.77487814,357.9612,12/20.0/2023,2000,g 15.0,4.0
# From MPEC 2022-ED3
P/2011 P1 (McNaught),e,5.6573,4.2895,349.1784,7.458230,0.0483894,0.32731076,236.3170,12/20.0/2023,2000,g  9.0,4.0
# From MPEC 2022-HC2
P/2011 S1 (Gibbs),e,2.6889,218.8970,192.6396,8.586825,0.0391701,0.20174580,133.5061,12/20.0/2023,2000,g  8.0,4.0
# From MPC 79022
